IRIDIUM 171             
1 43929U 19002H   25055.80512489  .00000449  00000+0  15334-3 0  9998
2 43929  86.4033 193.3093 0001850  84.5231 275.6175 14.34218627320532
IRIDIUM 170             
1 43930U 19002J   25055.89596000  .00003293  00000+0  51818-3 0  9997
2 43930  86.6144 193.0465 0002476  91.1285 269.0216 14.72253511329037
IRIDIUM 167             
1 43931U 19002K   25055.79878451  .00000222  00000+0  72324-4 0  9995
2 43931  86.4025 193.0771 0002247  85.7656 274.3797 14.34218282320534
IRIDIUM 181             
1 56726U 23068S   25055.84293994  .00000261  00000+0  71513-4 0  9999
2 56726  86.4455 256.1613 0002030  76.2355 283.9072 14.43317200 93588
IRIDIUM 177             
1 56727U 23068T   25055.78482560  .00003954  00000+0  51684-3 0  9990
2 56727  86.2007 195.4290 0002500  89.3531 270.7977 14.80222339 95746
IRIDIUM 174             
1 56728U 23068U   25055.91461071  .00004516  00000+0  59053-3 0  9993
2 56728  86.2014 195.4910 0001695  92.3711 267.7704 14.80239434 95762
IRIDIUM 178             
1 56729U 23068V   25055.90918334  .00001420  00000+0  18342-3 0  9999
2 56729  86.5768 224.8944 0001463  78.6697 281.4688 14.80236107 95767
IRIDIUM 179             
1 56730U 23068W   25055.90375993  .00001394  00000+0  18002-3 0  9992
2 56730  86.6764 232.2089 0001934  91.6064 268.5380 14.80228048 95765
